0 FENGYUN 1C DEB
1 30912U 99025AZA 13282.65664503  .00003375  00000-0  89315-3 0  9381
2 30912 099.0115 072.1130 0125802 253.6463 168.9284 14.44940410347129
0 FENGYUN 1C DEB
1 30912U 99025AZA 13286.89837324  .00004272  00000-0  11254-2 0  9400
2 30912 099.0110 076.6121 0125915 240.9851 273.7402 14.44966318347737
0 FENGYUN 1C DEB
1 30912U 99025AZA 13288.97116281  .00005706  00000-0  14974-2 0  9419
2 30912 099.0111 078.8103 0125906 234.8186 256.2237 14.44987909348030
0 FENGYUN 1C DEB
1 30912U 99025AZA 13291.65759437  .00005465  00000-0  14338-2 0  9421
2 30912 099.0120 081.6605 0125995 226.8335 191.0426 14.45011886348426
0 FENGYUN 1C DEB
1 30912U 99025AZA 13293.66540631  .00006312  00000-0  16526-2 0  9432
2 30912 099.0126 083.7910 0126022 220.8656 195.8500 14.45032404348712
0 FENGYUN 1C DEB
1 30912U 99025AZA 13295.67356632  .00007326  00000-0  19146-2 0  9449
2 30912 099.0128 085.9217 0126050 214.8886 202.6200 14.45053078349004
